CAS-2T & KS-1Q          
1 41847U 16066G   21129.86273869  .00000028  00000-0  15121-4 0  9991
2 41847  98.6043 188.8217 0364793 335.7629  22.6763 14.38183436236332
NAYIF-1 (EO-88)         
1 42017U 17008BX  21129.72948623  .00001705  00000-0  65100-4 0  9995
2 42017  97.3180 198.0223 0004528 235.9256 124.1554 15.27990033235348
ZHUHAI-1 02 (CAS-4B)    
1 42759U 17034B   21130.07529744  .00000227  00000-0  27041-4 0  9996
2 42759  43.0197  32.0675 0010384 285.0252 213.6850 15.10185266215341
ZHUHAI-1 01 (CAS-4A)    
1 42761U 17034D   21130.13644326  .00000276  00000-0  29887-4 0  9994
2 42761  43.0191  30.8119 0010806 286.7987 222.1024 15.10267544215358
MAX VALIER SAT          
1 42778U 17036P   21129.68521389  .00000985  00000-0  44116-4 0  9994
2 42778  97.2585 179.5617 0010518 319.8395  40.2065 15.23497153215381
RADFXSAT (FOX-1B)       
1 43017U 17073E   21129.71716118  .00000775  00000-0  64230-4 0  9998
2 43017  97.7098  35.2359 0256635  66.8888 295.9150 14.79477082187393
FOX-1D (AO-92)          
1 43137U 18004AC  21129.75583110  .00001105  00000-0  46946-4 0  9996
2 43137  97.4079 204.1822 0008548 359.0875   1.0345 15.25135626184762
DIWATA-2B               
1 43678U 18084H   21130.08568358 -.00000302  00000-0 -24224-4 0  9994
2 43678  97.9172 255.1804 0010026 169.4719 190.6707 14.91737905137711
ES'HAIL 2               
1 43700U 18090A   21130.01992771  .00000146  00000-0  00000+0 0  9995
2 43700   0.0189 278.2932 0000925 123.6398 219.0703  1.00269571  9221
FOX-1CLIFF (AO-95)      
1 43770U 18099N   21129.90555156 -.00000097  00000-0 -36189-5 0  9999
2 43770  97.6666 200.9408 0014475 180.7404 179.3798 14.95289278132691
ITASAT 1                
1 43786U 18099AE  21129.76548934  .00000043  00000-0  90153-5 0  9996
2 43786  97.6688 201.4548 0015253 174.3772 185.7623 14.95589342132700
JY1SAT (JO-97)          
1 43803U 18099AX  21129.73565034  .00000676  00000-0  65575-4 0  9994
2 43803  97.6644 201.1820 0015404 174.4581 185.6814 14.95824757132702
UWE-4                   
1 43880U 18111E   21129.74522839  .00000514  00000-0  49848-4 0  9997
2 43880  97.6890  38.1344 0011064 229.1456 130.8807 14.96828614129297
PSAT2 (NO-104)          
1 44354U 19036R   21129.91660014  .00007041  00000-0  90180-4 0  9995
2 44354  28.5309  23.7865 0328669 218.5019 139.1695 15.12666778103131
BRICSAT2 (NO-103)       
1 44355U 19036S   21129.94802293  .00013487  00000-0  14912-3 0  9995
2 44355  28.5255 344.5292 0271291 282.5330  74.5050 15.27483257103520
JAISAT-1                
1 44419U 19038F   21129.83507664  .00000995  00000-0  58754-4 0  9993
2 44419  97.5855  94.6899 0022849  85.7033 274.6809 15.13657980101956
DUCHIFAT-3              
1 44854U 19089C   21129.90492866  .00000422  00000-0  40124-4 0  9994
2 44854  36.9669 328.5968 0007660 196.7306 163.3182 14.99459630 77310
RS-44 & BREEZE-KM R/B   
1 44909U 19096E   21129.77048547  .00000031  00000-0  76741-4 0  9991
2 44909  82.5178 138.5171 0217319 183.2487 176.7217 12.79709919 63870
ORBITAL FACTORY 2 (OF-2)
1 45113U 19071C   21129.68490407  .00002252  00000-0  75171-4 0  9991
2 45113  51.6424 225.4501 0012117 151.7637 208.4005 15.35518952 71213
HUSKYSAT-1 (HO-107)     
1 45119U 19071J   21130.15275325  .00001634  00000-0  57513-4 0  9994
2 45119  51.6419 222.5703 0011513 149.8743 210.2904 15.35567632 71285
BY70-2                  
1 45857U 20042B   21130.09719060  .00001126  00000-0  16722-3 0  9997
2 45857  97.9840 206.2448 0010146 347.1021  12.9929 14.76924467 45881
SALSAT                  
1 46495U 20068K   21128.79392605  .00001302  00000-0  10000-3 0  9999
2 46495  97.6899  66.5335 0016139 201.6389 158.3521 15.03426722 33378
BY70-3                  
1 46839U 20079N   21130.14024808  .00002073  00000-0  66494-4 0  9997
2 46839  97.2418 204.7605 0006730 359.5268  59.3080 15.33439322 28337
RADFXSAT-2 (AO-109)     
1 47311U 21002C   21129.58845655  .00001523  00000-0  78363-4 0  9994
2 47311  60.6864  76.6692 0031561  27.2931 332.9805 15.21534877 16958
UVSQ-SAT                
1 47438U 21006AB  21129.89310135  .00000700  00000-0  43210-4 0  9991
2 47438  97.4899 191.8027 0011616 225.9884 134.0390 15.13053833 16228
DIY-1 (ARDUIQUBE)       
1 47963U 21022AH  21129.72180792  .00001665  00000-0  11462-3 0  9992
2 47963  97.5616  32.7407 0021623  77.5030 282.8615 15.07061941  6062
